{
    "links": {
        "self": "http://www.neowsapp.com/rest/v1/neo/3408077?api_key=iIulBulltgU6a56xZRHN4H3l9WmuAYTsLGpBGhQ2"
    },
    "id": "3408077",
    "neo_reference_id": "3408077",
    "name": "(2008 GK)",
    "designation": "2008 GK",
    "nasa_jpl_url": "http://ssd.jpl.nasa.gov/sbdb.cgi?sstr=3408077",
    "absolute_magnitude_h": 23.5,
    "estimated_diameter": {
        "kilometers": {
            "estimated_diameter_min": 0.0530340723,
            "estimated_diameter_max": 0.1185877909
        },
        "meters": {
            "estimated_diameter_min": 53.0340723319,
            "estimated_diameter_max": 118.5877908577
        },
        "miles": {
            "estimated_diameter_min": 0.0329538346,
            "estimated_diameter_max": 0.0736870142
        },
        "feet": {
            "estimated_diameter_min": 173.9963058693,
            "estimated_diameter_max": 389.0675677576
        }
    },
    "is_potentially_hazardous_asteroid": false,
    "close_approach_data": [
        {
            "close_approach_date": "2008-03-23",
            "close_approach_date_full": "2008-Mar-23 01:37",
            "epoch_date_close_approach": 1206236220000,
            "relative_velocity": {
                "kilometers_per_second": "16.2947840694",
                "kilometers_per_hour": "58661.2226497331",
                "miles_per_hour": "36449.8024847744"
            },
            "miss_distance": {
                "astronomical": "0.0283846768",
                "lunar": "11.0416392752",
                "kilometers": "4246287.189918416",
                "miles": "2638520.5099935008"
            },
            "orbiting_body": "Earth"
        }
    ],
    "orbital_data": {
        "orbit_id": "10",
        "orbit_determination_date": "2017-04-06 09:03:49",
        "first_observation_date": "2008-04-03",
        "last_observation_date": "2008-04-09",
        "data_arc_in_days": 6,
        "observations_used": 42,
        "orbit_uncertainty": "9",
        "minimum_orbit_intersection": ".0263447",
        "jupiter_tisserand_invariant": "4.021",
        "epoch_osculation": "2454561.5",
        "eccentricity": ".5738157485713062",
        "semi_major_axis": "1.677818803058589",
        "inclination": "8.538778325916226",
        "ascending_node_longitude": "191.7059670520946",
        "orbital_period": "793.8089892019816",
        "perihelion_distance": ".7150599506145117",
        "perihelion_argument": "272.3639664234158",
        "aphelion_distance": "2.640577655502666",
        "perihelion_time": "2454499.772037124341",
        "mean_anomaly": "27.99422397266772",
        "mean_motion": ".4535096035658515",
        "equinox": "J2000",
        "orbit_class": {
            "orbit_class_type": "APO",
            "orbit_class_description": "Near-Earth asteroid orbits which cross the Earth’s orbit similar to that of 1862 Apollo",
            "orbit_class_range": "a (semi-major axis) > 1.0 AU; q (perihelion) < 1.017 AU"
        }
    },
    "is_sentry_object": false
}